STARLINK-1572           
1 46060U 20055AK  26068.39969157 -.00004303  00000+0 -13689-3 0  9990
2 46060  53.1561 115.4328 0001206  90.8400 269.2739 15.29351391308999
TEVEL2-1                
1 63217U 25052H   26068.64782323  .00020683  00000+0  70600-3 0  9994
2 63217  97.3991 324.7682 0004767 104.8919 255.2849 15.30341923 54855
